STARLINK-34203          
1 64246U 25119P   26068.05716670  .00069725  00000+0  25131-2 0  9996
2 64246  43.0031 310.5368 0002626 280.0912  79.9644 15.27661500 44087
2025-313BD              
1 67299U 25313BD  26068.62968741  .00081010  00000+0  27634-2 0  9995
2 67299  97.3970 145.2850 0007287 333.4514  26.6352 15.30002360 10838
